{"fetched_at":"2026-07-13T07:48:41.766Z","source":"https://celestrak.org/NORAD/elements/gp.php?NAME=SENTINEL&FORMAT=JSON","constellation":"sentinel-5p","records":[{"OBJECT_NAME":"SENTINEL-5P","OBJECT_ID":"2017-064A","EPOCH":"2026-07-12T18:55:05.771136","CLASSIFICATION_TYPE":"U","MEAN_MOTION":14.19523062,"ECCENTRICITY":0.0001105,"INCLINATION":98.7929,"RA_OF_ASC_NODE":135.7382,"ARG_OF_PERICENTER":92.5141,"MEAN_ANOMALY":267.6162,"EPHEMERIS_TYPE":0,"NORAD_CAT_ID":42969,"ELEMENT_SET_NO":999,"REV_AT_EPOCH":45319,"BSTAR":0.000023052,"MEAN_MOTION_DOT":4e-8,"MEAN_MOTION_DDOT":0}]}
